{
  "type": "FeatureCollection",
  "features": [
    {
      "type": "Feature",
      "properties": {
        "name": "Buxoro shahri",
        "code": "bukhara_city",
        "boundary_type": "city",
        "source": "osm",
        "osm_relation": 13070474
      },
      "geometry": {
        "type": "Polygon",
        "coordinates": [
          [
            [
              64.4552327,
              39.7243327
            ],
            [
              64.4539663,
              39.7245446
            ],
            [
              64.4541952,
              39.7252487
            ],
            [
              64.4530736,
              39.7252839
            ],
            [
              64.4519979,
              39.7252135
            ],
            [
              64.4506017,
              39.7253895
            ],
            [
              64.4490682,
              39.7252135
            ],
            [
              64.4477636,
              39.7246326
            ],
            [
              64.4465276,
              39.7260233
            ],
            [
              64.4457936,
              39.7266841
            ],
            [
              64.4453145,
              39.7253191
            ],
            [
              64.4423246,
              39.725805
            ],
            [
              64.438677,
              39.7267626
            ],
            [
              64.4381048,
              39.7254952
            ],
            [
              64.4373495,
              39.724034
            ],
            [
              64.4360219,
              39.723101
            ],
            [
              64.4342596,
              39.7221152
            ],
            [
              64.4324285,
              39.7151787
            ],
            [
              64.4323141,
              39.7137877
            ],
            [
              64.4295217,
              39.7144744
            ],
            [
              64.4269811,
              39.7153195
            ],
            [
              64.4236623,
              39.7168336
            ],
            [
              64.4181234,
              39.7192808
            ],
            [
              64.4155141,
              39.7202315
            ],
            [
              64.4134313,
              39.7208652
            ],
            [
              64.4093572,
              39.7216046
            ],
            [
              64.4017126,
              39.7232243
            ],
            [
              64.3943197,
              39.724703
            ],
            [
              64.3923971,
              39.7248438
            ],
            [
              64.3899709,
              39.7248086
            ],
            [
              64.3886434,
              39.7246854
            ],
            [
              64.3812963,
              39.7236996
            ],
            [
              64.3738576,
              39.7224673
            ],
            [
              64.3742238,
              39.7232947
            ],
            [
              64.3770391,
              39.7301248
            ],
            [
              64.3781835,
              39.7333987
            ],
            [
              64.378481,
              39.7333459
            ],
            [
              64.3793508,
              39.7347717
            ],
            [
              64.3777028,
              39.7351941
            ],
            [
              64.3777028,
              39.7357397
            ],
            [
              64.375002,
              39.7364966
            ],
            [
              64.3724249,
              39.7375221
            ],
            [
              64.3761099,
              39.7417637
            ],
            [
              64.377768,
              39.7435993
            ],
            [
              64.377677,
              39.7437031
            ],
            [
              64.3768513,
              39.7447246
            ],
            [
              64.3793628,
              39.758973
            ],
            [
              64.3817676,
              39.7709513
            ],
            [
              64.3817831,
              39.7715618
            ],
            [
              64.3806642,
              39.7716975
            ],
            [
              64.3803871,
              39.7724057
            ],
            [
              64.3824299,
              39.7726939
            ],
            [
              64.3839568,
              39.7740647
            ],
            [
              64.3852879,
              39.7752903
            ],
            [
              64.3865622,
              39.7764571
            ],
            [
              64.3875469,
              39.7773093
            ],
            [
              64.3881325,
              39.7778485
            ],
            [
              64.3883461,
              39.7781726
            ],
            [
              64.3889224,
              39.7795659
            ],
            [
              64.389525,
              39.7810259
            ],
            [
              64.3903464,
              39.7828784
            ],
            [
              64.390621,
              39.783547
            ],
            [
              64.3909306,
              39.7840653
            ],
            [
              64.3921474,
              39.7853888
            ],
            [
              64.3941347,
              39.7868461
            ],
            [
              64.3950081,
              39.7874917
            ],
            [
              64.4006751,
              39.7917039
            ],
            [
              64.4049683,
              39.7947981
            ],
            [
              64.4089032,
              39.797612
            ],
            [
              64.4112252,
              39.8001683
            ],
            [
              64.4146177,
              39.8039764
            ],
            [
              64.4187908,
              39.8083654
            ],
            [
              64.4073652,
              39.8153758
            ],
            [
              64.4025259,
              39.8182797
            ],
            [
              64.40235,
              39.818385
            ],
            [
              64.4009963,
              39.8191956
            ],
            [
              64.3948683,
              39.8228647
            ],
            [
              64.3873838,
              39.8273647
            ],
            [
              64.3893522,
              39.8303001
            ],
            [
              64.3962873,
              39.8326554
            ],
            [
              64.3999266,
              39.8348524
            ],
            [
              64.401071,
              39.8339736
            ],
            [
              64.4073423,
              39.8385783
            ],
            [
              64.4111418,
              39.8415133
            ],
            [
              64.4142317,
              39.8436573
            ],
            [
              64.415811,
              39.8445183
            ],
            [
              64.4226316,
              39.847084
            ],
            [
              64.422563,
              39.8448171
            ],
            [
              64.4242109,
              39.8439033
            ],
            [
              64.4264768,
              39.8436397
            ],
            [
              64.4275984,
              39.8434991
            ],
            [
              64.4280561,
              39.8427961
            ],
            [
              64.4279188,
              39.8415484
            ],
            [
              64.4303907,
              39.8416187
            ],
            [
              64.4308485,
              39.8410388
            ],
            [
              64.4308485,
              39.8403534
            ],
            [
              64.429727,
              39.8344481
            ],
            [
              64.4269346,
              39.8347118
            ],
            [
              64.4268888,
              39.8327608
            ],
            [
              64.4257673,
              39.8289467
            ],
            [
              64.423982,
              39.8255191
            ],
            [
              64.427667,
              39.8252202
            ],
            [
              64.4281935,
              39.8251851
            ],
            [
              64.4282548,
              39.8229246
            ],
            [
              64.4282758,
              39.8221504
            ],
            [
              64.4304795,
              39.8222465
            ],
            [
              64.4304603,
              39.8208569
            ],
            [
              64.4336879,
              39.8204856
            ],
            [
              64.4341493,
              39.8217875
            ],
            [
              64.4353187,
              39.8215733
            ],
            [
              64.4369709,
              39.8214991
            ],
            [
              64.437318,
              39.8219043
            ],
            [
              64.4390659,
              39.8214071
            ],
            [
              64.4442934,
              39.8210963
            ],
            [
              64.4446333,
              39.8219913
            ],
            [
              64.4481453,
              39.8222399
            ],
            [
              64.4522562,
              39.8222275
            ],
            [
              64.4522723,
              39.8217178
            ],
            [
              64.4534376,
              39.8214195
            ],
            [
              64.458034,
              39.8221902
            ],
            [
              64.4579369,
              39.8217924
            ],
            [
              64.4609796,
              39.8214817
            ],
            [
              64.4628569,
              39.821059
            ],
            [
              64.4672267,
              39.8199527
            ],
            [
              64.4696058,
              39.8193063
            ],
            [
              64.4696382,
              39.8188837
            ],
            [
              64.4695735,
              39.8185356
            ],
            [
              64.4727544,
              39.8167094
            ],
            [
              64.4773736,
              39.8209742
            ],
            [
              64.4781338,
              39.8207672
            ],
            [
              64.4803014,
              39.819744
            ],
            [
              64.4816932,
              39.8190603
            ],
            [
              64.4831498,
              39.8182647
            ],
            [
              64.4847683,
              39.8218447
            ],
            [
              64.4856584,
              39.8236471
            ],
            [
              64.4863058,
              39.8257104
            ],
            [
              64.4876491,
              39.8257725
            ],
            [
              64.4884583,
              39.827724
            ],
            [
              64.4883126,
              39.8277861
            ],
            [
              64.4892999,
              39.8300357
            ],
            [
              64.4905299,
              39.8298617
            ],
            [
              64.4917114,
              39.8300979
            ],
            [
              64.495191,
              39.8291657
            ],
            [
              64.4960002,
              39.8290663
            ],
            [
              64.496065,
              39.8293024
            ],
            [
              64.4993504,
              39.8293149
            ],
            [
              64.4995446,
              39.8291533
            ],
            [
              64.5014505,
              39.8295849
            ],
            [
              64.5015838,
              39.8296132
            ],
            [
              64.5026358,
              39.8295013
            ],
            [
              64.5035907,
              39.8290787
            ],
            [
              64.5065686,
              39.8285319
            ],
            [
              64.5069894,
              39.8291284
            ],
            [
              64.5076206,
              39.8296256
            ],
            [
              64.5083489,
              39.8300606
            ],
            [
              64.508883,
              39.8302346
            ],
            [
              64.5094171,
              39.8308188
            ],
            [
              64.5105985,
              39.8323972
            ],
            [
              64.5103396,
              39.8327825
            ],
            [
              64.5105176,
              39.8331429
            ],
            [
              64.513803,
              39.8371198
            ],
            [
              64.5142562,
              39.8382258
            ],
            [
              64.5164087,
              39.8374678
            ],
            [
              64.5177682,
              39.8368215
            ],
            [
              64.5191136,
              39.8366943
            ],
            [
              64.5202271,
              39.83676
            ],
            [
              64.520662,
              39.8369533
            ],
            [
              64.52128,
              39.8373576
            ],
            [
              64.5225617,
              39.8371115
            ],
            [
              64.5248047,
              39.8356176
            ],
            [
              64.5240265,
              39.8334909
            ],
            [
              64.5236145,
              39.8317685
            ],
            [
              64.5235459,
              39.8299053
            ],
            [
              64.5234314,
              39.828464
            ],
            [
              64.5229279,
              39.82813
            ],
            [
              64.5224701,
              39.8280949
            ],
            [
              64.5202271,
              39.8274094
            ],
            [
              64.5192887,
              39.8266008
            ],
            [
              64.5191056,
              39.8261965
            ],
            [
              64.51922,
              39.8232433
            ],
            [
              64.5189454,
              39.8226632
            ],
            [
              64.5184189,
              39.8223117
            ],
            [
              64.5176407,
              39.8222589
            ],
            [
              64.5136124,
              39.8210987
            ],
            [
              64.5120789,
              39.8200615
            ],
            [
              64.5112092,
              39.8192177
            ],
            [
              64.5111634,
              39.8180223
            ],
            [
              64.5107056,
              39.8175476
            ],
            [
              64.5104996,
              39.8156841
            ],
            [
              64.5099961,
              39.8120624
            ],
            [
              64.507753,
              39.8118514
            ],
            [
              64.5049378,
              39.8115877
            ],
            [
              64.5049149,
              39.8111833
            ],
            [
              64.5017334,
              39.8108668
            ],
            [
              64.498758,
              39.8107086
            ],
            [
              64.496369,
              39.8104796
            ],
            [
              64.4943505,
              39.8080251
            ],
            [
              64.4935218,
              39.8058235
            ],
            [
              64.4935099,
              39.8044047
            ],
            [
              64.4932581,
              39.8032442
            ],
            [
              64.4925028,
              39.8024001
            ],
            [
              64.4915186,
              39.8015209
            ],
            [
              64.4911066,
              39.801011
            ],
            [
              64.4909464,
              39.8007296
            ],
            [
              64.4905802,
              39.800589
            ],
            [
              64.4896885,
              39.8006795
            ],
            [
              64.4896749,
              39.8004702
            ],
            [
              64.4896525,
              39.7998852
            ],
            [
              64.4895656,
              39.7989358
            ],
            [
              64.4894862,
              39.7978911
            ],
            [
              64.4894227,
              39.79701
            ],
            [
              64.4893718,
              39.7964364
            ],
            [
              64.4893401,
              39.7959556
            ],
            [
              64.4892606,
              39.7948621
            ],
            [
              64.4891431,
              39.7931437
            ],
            [
              64.4890637,
              39.7921282
            ],
            [
              64.4889874,
              39.7910786
            ],
            [
              64.4889334,
              39.7901193
            ],
            [
              64.4888127,
              39.7887254
            ],
            [
              64.4887396,
              39.7875561
            ],
            [
              64.4886825,
              39.7871045
            ],
            [
              64.4885173,
              39.7861134
            ],
            [
              64.4883965,
              39.7851931
            ],
            [
              64.4882441,
              39.7841702
            ],
            [
              64.4880916,
              39.7831058
            ],
            [
              64.487901,
              39.7818485
            ],
            [
              64.4877929,
              39.7811405
            ],
            [
              64.487717,
              39.7807067
            ],
            [
              64.4875542,
              39.7798867
            ],
            [
              64.4873677,
              39.7790874
            ],
            [
              64.4871925,
              39.7783192
            ],
            [
              64.4869858,
              39.7774491
            ],
            [
              64.4867881,
              39.7766584
            ],
            [
              64.4866601,
              39.7760697
            ],
            [
              64.4865703,
              39.7752772
            ],
            [
              64.4864804,
              39.774269
            ],
            [
              64.4863838,
              39.773297
            ],
            [
              64.4863366,
              39.772482
            ],
            [
              64.4862445,
              39.7715238
            ],
            [
              64.4861682,
              39.770771
            ],
            [
              64.4861142,
              39.7699267
            ],
            [
              64.4860199,
              39.76906
            ],
            [
              64.485966,
              39.7681846
            ],
            [
              64.4858424,
              39.766786
            ],
            [
              64.4857548,
              39.7658778
            ],
            [
              64.4857077,
              39.7650894
            ],
            [
              64.4856268,
              39.7641821
            ],
            [
              64.4855774,
              39.7636831
            ],
            [
              64.4854336,
              39.763153
            ],
            [
              64.4851483,
              39.7621895
            ],
            [
              64.4849776,
              39.7615575
            ],
            [
              64.4848136,
              39.7610774
            ],
            [
              64.4845126,
              39.7600033
            ],
            [
              64.4843127,
              39.7593627
            ],
            [
              64.484115,
              39.758703
            ],
            [
              64.4840206,
              39.7583524
            ],
            [
              64.4838499,
              39.7577619
            ],
            [
              64.4837062,
              39.7572852
            ],
            [
              64.4835849,
              39.7568483
            ],
            [
              64.4833355,
              39.7559676
            ],
            [
              64.4832951,
              39.7558502
            ],
            [
              64.4831311,
              39.7552803
            ],
            [
              64.4829896,
              39.7547898
            ],
            [
              64.4828593,
              39.7543926
            ],
            [
              64.4826252,
              39.7535812
            ],
            [
              64.4823786,
              39.7527468
            ],
            [
              64.4823246,
              39.7526431
            ],
            [
              64.4821292,
              39.7518729
            ],
            [
              64.4818844,
              39.7510784
            ],
            [
              64.4816081,
              39.7500854
            ],
            [
              64.4813587,
              39.7492944
            ],
            [
              64.481206,
              39.7487089
            ],
            [
              64.481179,
              39.7486156
            ],
            [
              64.480887,
              39.7476277
            ],
            [
              64.480586,
              39.7466501
            ],
            [
              64.4804273,
              39.7460337
            ],
            [
              64.493146,
              39.7399081
            ],
            [
              64.4999666,
              39.736652
            ],
            [
              64.4969912,
              39.733871
            ],
            [
              64.4979525,
              39.7333078
            ],
            [
              64.498456,
              39.7327269
            ],
            [
              64.4985018,
              39.7320932
            ],
            [
              64.4983416,
              39.731354
            ],
            [
              64.4972887,
              39.7299282
            ],
            [
              64.4960527,
              39.7277454
            ],
            [
              64.4937639,
              39.7263548
            ],
            [
              64.49088,
              39.7231685
            ],
            [
              64.4886573,
              39.7248427
            ],
            [
              64.4881419,
              39.7242209
            ],
            [
              64.4865193,
              39.7222634
            ],
            [
              64.4849074,
              39.7226156
            ],
            [
              64.4654453,
              39.7241794
            ],
            [
              64.4552327,
              39.7243327
            ]
          ]
        ]
      }
    }
  ]
}